{"type": "FeatureCollection", "features": [ {"type": "Feature", "properties": {"norad_id": 66809, "name": "STARLINK-35979", "group": "last-30-days", "lat": -0.16560260160279786, "lon": -161.88261560472014, "alt_km": 394.35986049445, "timestamp": "2025-12-21T14:40:46.634470+00:00", "meta": {"OBJECT_NAME": "STARLINK-35979", "OBJECT_ID": "2025-278U", "EPOCH": "2025-12-21T06:00:00.999648", "MEAN_MOTION": 15.59216598, "ECCENTRICITY": 0.0001346, "INCLINATION": 42.9995, "RA_OF_ASC_NODE": 200.4359, "ARG_OF_PERICENTER": 275.0978, "MEAN_ANOMALY": 213.3848, "EPHEMERIS_TYPE": 0, "CLASSIFICATION_TYPE": "U", "NORAD_CAT_ID": 66809, "ELEMENT_SET_NO": 999, "REV_AT_EPOCH": 432, "BSTAR": -0.028403367, "MEAN_MOTION_DOT": -0.02008168, "MEAN_MOTION_DDOT": 0}, "tle": {"line1": "1 66809U 25278U   25355.25001157 -.02008168  00000+0 -28403-1 0  9998", "line2": "2 66809  42.9995 200.4359 0001346 275.0978 213.3848 15.59216598  4323"}}, "geometry": {"type": "Point", "coordinates": [-161.88261560472014, -0.16560260160279786]}}, {"type": "Feature", "properties": {"norad_id": 66810, "name": "STARLINK-36046", "group": "last-30-days", "lat": -2.7780360949661635, "lon": -164.67876354090996, "alt_km": 394.7363545821663, "timestamp": "2025-12-21T14:40:46.634480+00:00", "meta": {"OBJECT_NAME": "STARLINK-36046", "OBJECT_ID": "2025-278V", "EPOCH": "2025-12-21T06:00:00.999648", "MEAN_MOTION": 15.59218183, "ECCENTRICITY": 0.00014648, "INCLINATION": 42.9995, "RA_OF_ASC_NODE": 200.447, "ARG_OF_PERICENTER": 269.4445, "MEAN_ANOMALY": 215.2024, "EPHEMERIS_TYPE": 0, "CLASSIFICATION_TYPE": "U", "NORAD_CAT_ID": 66810, "ELEMENT_SET_NO": 999, "REV_AT_EPOCH": 409, "BSTAR": -0.028443069, "MEAN_MOTION_DOT": -0.02010818, "MEAN_MOTION_DDOT": 0}, "tle": {"line1": "1 66810U 25278V   25355.25001157 -.02010818  00000+0 -28443-1 0  9999", "line2": "2 66810  42.9995 200.4470 0001464 269.4445 215.2024 15.59218183  4099"}}, "geometry": {"type": "Point", "coordinates": [-164.67876354090996, -2.7780360949661635]}}, {"type": "Feature", "properties": {"norad_id": 66811, "name": "STARLINK-36045", "group": "last-30-days", "lat": -1.4721210798734077, "lon": -163.27907579907836, "alt_km": 394.6024309098575, "timestamp": "2025-12-21T14:40:46.634490+00:00", "meta": {"OBJECT_NAME": "STARLINK-36045", "OBJECT_ID": "2025-278W", "EPOCH": "2025-12-21T06:00:00.999648", "MEAN_MOTION": 15.59216818, "ECCENTRICITY": 0.00014891, "INCLINATION": 42.9994, "RA_OF_ASC_NODE": 200.4421, "ARG_OF_PERICENTER": 269.5459, "MEAN_ANOMALY": 217.0181, "EPHEMERIS_TYPE": 0, "CLASSIFICATION_TYPE": "U", "NORAD_CAT_ID": 66811, "ELEMENT_SET_NO": 999, "REV_AT_EPOCH": 432, "BSTAR": -0.028405094, "MEAN_MOTION_DOT": -0.02008396, "MEAN_MOTION_DDOT": 0}, "tle": {"line1": "1 66811U 25278W   25355.25001157 -.02008396  00000+0 -28405-1 0  9996", "line2": "2 66811  42.9994 200.4421 0001489 269.5459 217.0181 15.59216818  4321"}}, "geometry": {"type": "Point", "coordinates": [-163.27907579907836, -1.4721210798734077]}}, {"type": "Feature", "properties": {"norad_id": 66812, "name": "STARLINK-36054", "group": "last-30-days", "lat": 1.1425911176420946, "lon": -160.48206235802687, "alt_km": 394.20688806001635, "timestamp": "2025-12-21T14:40:46.634500+00:00", "meta": {"OBJECT_NAME": "STARLINK-36054", "OBJECT_ID": "2025-278X", "EPOCH": "2025-12-21T06:00:00.999648", "MEAN_MOTION": 15.59220617, "ECCENTRICITY": 0.00014741, "INCLINATION": 42.9995, "RA_OF_ASC_NODE": 200.4323, "ARG_OF_PERICENTER": 275.3376, "MEAN_ANOMALY": 215.0601, "EPHEMERIS_TYPE": 0, "CLASSIFICATION_TYPE": "U", "NORAD_CAT_ID": 66812, "ELEMENT_SET_NO": 999, "REV_AT_EPOCH": 432, "BSTAR": -0.028484494, "MEAN_MOTION_DOT": -0.0201355, "MEAN_MOTION_DDOT": 0}, "tle": {"line1": "1 66812U 25278X   25355.25001157 -.02013550  00000+0 -28484-1 0  9992", "line2": "2 66812  42.9995 200.4323 0001474 275.3376 215.0601 15.59220617  4328"}}, "geometry": {"type": "Point", "coordinates": [-160.48206235802687, 1.1425911176420946]}}, {"type": "Feature", "properties": {"norad_id": 66813, "name": "STARLINK-36042", "group": "last-30-days", "lat": 2.4486222060260103, "lon": -159.08380544736903, "alt_km": 394.0312110062205, "timestamp": "2025-12-21T14:40:46.634510+00:00", "meta": {"OBJECT_NAME": "STARLINK-36042", "OBJECT_ID": "2025-278Y", "EPOCH": "2025-12-21T06:00:00.999648", "MEAN_MOTION": 15.59220171, "ECCENTRICITY": 0.00014324, "INCLINATION": 42.9994, "RA_OF_ASC_NODE": 200.4267, "ARG_OF_PERICENTER": 277.3048, "MEAN_ANOMALY": 215.0109, "EPHEMERIS_TYPE": 0, "CLASSIFICATION_TYPE": "U", "NORAD_CAT_ID": 66813, "ELEMENT_SET_NO": 999, "REV_AT_EPOCH": 432, "BSTAR": -0.028494607, "MEAN_MOTION_DOT": -0.02014114, "MEAN_MOTION_DDOT": 0}, "tle": {"line1": "1 66813U 25278Y   25355.25001157 -.02014114  00000+0 -28495-1 0  9992", "line2": "2 66813  42.9994 200.4267 0001432 277.3048 215.0109 15.59220171  4325"}}, "geometry": {"type": "Point", "coordinates": [-159.08380544736903, 2.4486222060260103]}}, {"type": "Feature", "properties": {"norad_id": 66814, "name": "STARLINK-35984", "group": "last-30-days", "lat": 10.227797742200446, "lon": -150.57852218501986, "alt_km": 393.33984089845853, "timestamp": "2025-12-21T14:40:46.634520+00:00", "meta": {"OBJECT_NAME": "STARLINK-35984", "OBJECT_ID": "2025-278Z", "EPOCH": "2025-12-21T06:00:00.999648", "MEAN_MOTION": 15.5921935, "ECCENTRICITY": 0.00013761, "INCLINATION": 42.9995, "RA_OF_ASC_NODE": 200.3976, "ARG_OF_PERICENTER": 268.3702, "MEAN_ANOMALY": 235.4481, "EPHEMERIS_TYPE": 0, "CLASSIFICATION_TYPE": "U", "NORAD_CAT_ID": 66814, "ELEMENT_SET_NO": 999, "REV_AT_EPOCH": 441, "BSTAR": -0.028499308, "MEAN_MOTION_DOT": -0.02014307, "MEAN_MOTION_DDOT": 0}, "tle": {"line1": "1 66814U 25278Z   25355.25001157 -.02014307  00000+0 -28499-1 0  9991", "line2": "2 66814  42.9995 200.3976 0001376 268.3702 235.4481 15.59219350  4413"}}, "geometry": {"type": "Point", "coordinates": [-150.57852218501986, 10.227797742200446]}}, {"type": "Feature", "properties": {"norad_id": 66815, "name": "STARLINK-35985", "group": "last-30-days", "lat": 8.943026844354618, "lon": -152.01610763751114, "alt_km": 393.466010324586, "timestamp": "2025-12-21T14:40:46.634534+00:00", "meta": {"OBJECT_NAME": "STARLINK-35985", "OBJECT_ID": "2025-278AA", "EPOCH": "2025-12-21T06:00:00.999648", "MEAN_MOTION": 15.59221089, "ECCENTRICITY": 0.00014497, "INCLINATION": 42.9992, "RA_OF_ASC_NODE": 200.402, "ARG_OF_PERICENTER": 270.2729, "MEAN_ANOMALY": 231.6284, "EPHEMERIS_TYPE": 0, "CLASSIFICATION_TYPE": "U", "NORAD_CAT_ID": 66815, "ELEMENT_SET_NO": 999, "REV_AT_EPOCH": 441, "BSTAR": -0.028547748, "MEAN_MOTION_DOT": -0.02017473, "MEAN_MOTION_DDOT": 0}, "tle": {"line1": "1 66815U 25278AA  25355.25001157 -.02017473  00000+0 -28548-1 0  9994", "line2": "2 66815  42.9992 200.4020 0001449 270.2729 231.6284 15.59221089  4415"}}, "geometry": {"type": "Point", "coordinates": [-152.01610763751114, 8.943026844354618]}}, {"type": "Feature", "properties": {"norad_id": 66816, "name": "STARLINK-36098", "group": "last-30-days", "lat": 3.754246753919472, "lon": -157.68067019184662, "alt_km": 393.910006185346, "timestamp": "2025-12-21T14:40:46.634544+00:00", "meta": {"OBJECT_NAME": "STARLINK-36098", "OBJECT_ID": "2025-278AB", "EPOCH": "2025-12-21T06:00:00.999648", "MEAN_MOTION": 15.59211075, "ECCENTRICITY": 0.00015279, "INCLINATION": 42.9995, "RA_OF_ASC_NODE": 200.4221, "ARG_OF_PERICENTER": 275.4296, "MEAN_ANOMALY": 218.805, "EPHEMERIS_TYPE": 0, "CLASSIFICATION_TYPE": "U", "NORAD_CAT_ID": 66816, "ELEMENT_SET_NO": 999, "REV_AT_EPOCH": 416, "BSTAR": -0.028235015, "MEAN_MOTION_DOT": -0.0199751, "MEAN_MOTION_DDOT": 0}, "tle": {"line1": "1 66816U 25278AB  25355.25001157 -.01997510  00000+0 -28235-1 0  9996", "line2": "2 66816  42.9995 200.4221 0001527 275.4296 218.8050 15.59211075  4169"}}, "geometry": {"type": "Point", "coordinates": [-157.68067019184662, 3.754246753919472]}}, {"type": "Feature", "properties": {"norad_id": 66817, "name": "STARLINK-35995", "group": "last-30-days", "lat": 6.356851648358424, "lon": -154.861936876087, "alt_km": 393.66359196611575, "timestamp": "2025-12-21T14:40:46.634556+00:00", "meta": {"OBJECT_NAME": "STARLINK-35995", "OBJECT_ID": "2025-278AC", "EPOCH": "2025-12-21T06:00:00.999648", "MEAN_MOTION": 15.59216773, "ECCENTRICITY": 0.00015027, "INCLINATION": 42.9991, "RA_OF_ASC_NODE": 200.4123, "ARG_OF_PERICENTER": 274.635, "MEAN_ANOMALY": 223.4349, "EPHEMERIS_TYPE": 0, "CLASSIFICATION_TYPE": "U", "NORAD_CAT_ID": 66817, "ELEMENT_SET_NO": 999, "REV_AT_EPOCH": 432, "BSTAR": -0.028455296, "MEAN_MOTION_DOT": -0.02011507, "MEAN_MOTION_DDOT": 0}, "tle": {"line1": "1 66817U 25278AC  25355.25001157 -.02011507  00000+0 -28455-1 0  9995", "line2": "2 66817  42.9991 200.4123 0001502 274.6350 223.4349 15.59216773  4323"}}, "geometry": {"type": "Point", "coordinates": [-154.861936876087, 6.356851648358424]}}, {"type": "Feature", "properties": {"norad_id": 66818, "name": "STARLINK-35994", "group": "last-30-days", "lat": 5.055572998182032, "lon": -156.2752680459504, "alt_km": 393.92431808723177, "timestamp": "2025-12-21T14:40:46.634568+00:00", "meta": {"OBJECT_NAME": "STARLINK-35994", "OBJECT_ID": "2025-278AD", "EPOCH": "2025-12-21T06:00:00.999648", "MEAN_MOTION": 15.59218783, "ECCENTRICITY": 0.00014329, "INCLINATION": 42.9991, "RA_OF_ASC_NODE": 200.4177, "ARG_OF_PERICENTER": 269.3864, "MEAN_ANOMALY": 226.7629, "EPHEMERIS_TYPE": 0, "CLASSIFICATION_TYPE": "U", "NORAD_CAT_ID": 66818, "ELEMENT_SET_NO": 999, "REV_AT_EPOCH": 432, "BSTAR": -0.028463362, "MEAN_MOTION_DOT": -0.0201209, "MEAN_MOTION_DDOT": 0}, "tle": {"line1": "1 66818U 25278AD  25355.25001157 -.02012090  00000+0 -28463-1 0  9993", "line2": "2 66818  42.9991 200.4177 0001432 269.3864 226.7629 15.59218783  4326"}}, "geometry": {"type": "Point", "coordinates": [-156.2752680459504, 5.055572998182032]}}]}